{
  "norad_id": 57501,
  "name": "STARLINK-30072",
  "history": [
    {
      "epoch": "2026-03-28T20:37:35.616000Z",
      "apogee_km": 483.71139439874787,
      "perigee_km": 482.6360897792474,
      "latitude_deg": -2.894267760606379e-05,
      "longitude_deg": 132.4016305032381,
      "height_km": 482.84603078004665,
      "semi_major_axis_km": 6861.310742088997,
      "eccentricity": 7.836e-05,
      "inclination_deg": 42.9982,
      "raan_deg": 268.0739,
      "arg_perigee_deg": 281.119,
      "mean_anomaly_deg": 78.9573,
      "mean_motion_rev_day": 15.27538374
    },
    {
      "epoch": "2026-03-29T04:28:22.368864Z",
      "apogee_km": 484.0717092161249,
      "perigee_km": 481.9872868340244,
      "latitude_deg": 5.541950111681684e-05,
      "longitude_deg": 12.53807999129019,
      "height_km": 482.7139958189919,
      "semi_major_axis_km": 6861.166498025074,
      "eccentricity": 0.0001519,
      "inclination_deg": 42.9996,
      "raan_deg": 266.2273,
      "arg_perigee_deg": 275.0786,
      "mean_anomaly_deg": 84.9893,
      "mean_motion_rev_day": 15.27586545
    },
    {
      "epoch": "2026-03-30T04:00:40.963392Z",
      "apogee_km": 483.7268319671948,
      "perigee_km": 482.30931732877343,
      "latitude_deg": -7.033279980411047e-06,
      "longitude_deg": 12.955145012333475,
      "height_km": 482.4972289929078,
      "semi_major_axis_km": 6861.155074647984,
      "eccentricity": 0.0001033,
      "inclination_deg": 43.0011,
      "raan_deg": 260.6886,
      "arg_perigee_deg": 294.8022,
      "mean_anomaly_deg": 65.2722,
      "mean_motion_rev_day": 15.2759036
    }
  ]
}